{"type": "FeatureCollection", "features": [ {"type": "Feature", "properties": {"norad_id": 41836, "name": "HIMAWARI-9", "group": "weather", "lat": -0.040161736071042974, "lon": -137.50158986647241, "alt_km": 35790.04131255027, "timestamp": "2025-12-18T23:35:48.688865+00:00", "meta": {"OBJECT_NAME": "HIMAWARI-9", "OBJECT_ID": "2016-064A", "EPOCH": "2025-12-18T13:42:40.000320", "MEAN_MOTION": 1.00268189, "ECCENTRICITY": 0.00019062, "INCLINATION": 0.0198, "RA_OF_ASC_NODE": 340.0135, "ARG_OF_PERICENTER": 353.9187, "MEAN_ANOMALY": 99.9111, "EPHEMERIS_TYPE": 0, "CLASSIFICATION_TYPE": "U", "NORAD_CAT_ID": 41836, "ELEMENT_SET_NO": 999, "REV_AT_EPOCH": 3339, "BSTAR": 0, "MEAN_MOTION_DOT": 0, "MEAN_MOTION_DDOT": 0}, "tle": {"line1": "1 41836U 16064A   25352.57129630  .00000000  00000+0  00000+0 0  9997", "line2": "2 41836   0.0198 340.0135 0001906 353.9187  99.9111  1.00268189 33393"}}, "geometry": {"type": "Point", "coordinates": [-137.50158986647241, -0.040161736071042974]}}, {"type": "Feature", "properties": {"norad_id": 41866, "name": "GOES 16", "group": "weather", "lat": -0.05902028687828506, "lon": -22.858904314778393, "alt_km": 35782.015042939216, "timestamp": "2025-12-18T23:35:48.688878+00:00", "meta": {"OBJECT_NAME": "GOES 16", "OBJECT_ID": "2016-071A", "EPOCH": "2025-12-18T14:30:34.696800", "MEAN_MOTION": 1.00272245, "ECCENTRICITY": 0.00030277, "INCLINATION": 0.0709, "RA_OF_ASC_NODE": 104.3164, "ARG_OF_PERICENTER": 160.7339, "MEAN_ANOMALY": 295.3866, "EPHEMERIS_TYPE": 0, "CLASSIFICATION_TYPE": "U", "NORAD_CAT_ID": 41866, "ELEMENT_SET_NO": 999, "REV_AT_EPOCH": 3329, "BSTAR": 0, "MEAN_MOTION_DOT": -6.6e-07, "MEAN_MOTION_DDOT": 0}, "tle": {"line1": "1 41866U 16071A   25352.60456825 -.00000066  00000+0  00000+0 0  9994", "line2": "2 41866   0.0709 104.3164 0003027 160.7339 295.3866  1.00272245 33292"}}, "geometry": {"type": "Point", "coordinates": [-22.858904314778393, -0.05902028687828506]}}, {"type": "Feature", "properties": {"norad_id": 41882, "name": "FENGYUN 4A", "group": "weather", "lat": 1.545225205648316, "lon": -154.4628954747861, "alt_km": 35769.372568133804, "timestamp": "2025-12-18T23:35:48.688891+00:00", "meta": {"OBJECT_NAME": "FENGYUN 4A", "OBJECT_ID": "2016-077A", "EPOCH": "2025-12-18T15:35:43.456992", "MEAN_MOTION": 1.00267081, "ECCENTRICITY": 0.00045125, "INCLINATION": 1.8638, "RA_OF_ASC_NODE": 82.3341, "ARG_OF_PERICENTER": 143.047, "MEAN_ANOMALY": 219.8229, "EPHEMERIS_TYPE": 0, "CLASSIFICATION_TYPE": "U", "NORAD_CAT_ID": 41882, "ELEMENT_SET_NO": 999, "REV_AT_EPOCH": 3312, "BSTAR": 0, "MEAN_MOTION_DOT": -3.33e-06, "MEAN_MOTION_DDOT": 0}, "tle": {"line1": "1 41882U 16077A   25352.64980853 -.00000333  00000+0  00000+0 0  9992", "line2": "2 41882   1.8638  82.3341 0004512 143.0470 219.8229  1.00267081 33120"}}, "geometry": {"type": "Point", "coordinates": [-154.4628954747861, 1.545225205648316]}}, {"type": "Feature", "properties": {"norad_id": 41884, "name": "CYGFM05", "group": "weather", "lat": -32.7669093191863, "lon": -60.762792716842306, "alt_km": 420.3184696431899, "timestamp": "2025-12-18T23:35:48.688902+00:00", "meta": {"OBJECT_NAME": "CYGFM05", "OBJECT_ID": "2016-078A", "EPOCH": "2025-12-18T09:58:14.123136", "MEAN_MOTION": 15.47842846, "ECCENTRICITY": 0.00106743, "INCLINATION": 34.9607, "RA_OF_ASC_NODE": 10.0509, "ARG_OF_PERICENTER": 233.6199, "MEAN_ANOMALY": 126.3539, "EPHEMERIS_TYPE": 0, "CLASSIFICATION_TYPE": "U", "NORAD_CAT_ID": 41884, "ELEMENT_SET_NO": 999, "REV_AT_EPOCH": 50064, "BSTAR": 0.00032790971, "MEAN_MOTION_DOT": 0.000176, "MEAN_MOTION_DDOT": 0}, "tle": {"line1": "1 41884U 16078A   25352.41544124  .00017600  00000+0  32791-3 0  9997", "line2": "2 41884  34.9607  10.0509 0010674 233.6199 126.3539 15.47842846500645"}}, "geometry": {"type": "Point", "coordinates": [-60.762792716842306, -32.7669093191863]}}, {"type": "Feature", "properties": {"norad_id": 41885, "name": "CYGFM04", "group": "weather", "lat": -26.0832211567654, "lon": -154.53280970200203, "alt_km": 410.96470832763316, "timestamp": "2025-12-18T23:35:48.688913+00:00", "meta": {"OBJECT_NAME": "CYGFM04", "OBJECT_ID": "2016-078B", "EPOCH": "2025-12-18T08:42:07.613568", "MEAN_MOTION": 15.50592103, "ECCENTRICITY": 0.00097951, "INCLINATION": 34.9357, "RA_OF_ASC_NODE": 345.0092, "ARG_OF_PERICENTER": 258.3905, "MEAN_ANOMALY": 101.5718, "EPHEMERIS_TYPE": 0, "CLASSIFICATION_TYPE": "U", "NORAD_CAT_ID": 41885, "ELEMENT_SET_NO": 999, "REV_AT_EPOCH": 50081, "BSTAR": 0.00035246337, "MEAN_MOTION_DOT": 0.00020857, "MEAN_MOTION_DDOT": 0}, "tle": {"line1": "1 41885U 16078B   25352.36258812  .00020857  00000+0  35246-3 0  9994", "line2": "2 41885  34.9357 345.0092 0009795 258.3905 101.5718 15.50592103500812"}}, "geometry": {"type": "Point", "coordinates": [-154.53280970200203, -26.0832211567654]}}, {"type": "Feature", "properties": {"norad_id": 41886, "name": "CYGFM02", "group": "weather", "lat": -34.79781748858564, "lon": -105.24181672586253, "alt_km": 405.28724184013845, "timestamp": "2025-12-18T23:35:48.688924+00:00", "meta": {"OBJECT_NAME": "CYGFM02", "OBJECT_ID": "2016-078C", "EPOCH": "2025-12-18T10:04:08.517792", "MEAN_MOTION": 15.51990964, "ECCENTRICITY": 0.00114697, "INCLINATION": 34.9446, "RA_OF_ASC_NODE": 342.8876, "ARG_OF_PERICENTER": 258.9648, "MEAN_ANOMALY": 100.9785, "EPHEMERIS_TYPE": 0, "CLASSIFICATION_TYPE": "U", "NORAD_CAT_ID": 41886, "ELEMENT_SET_NO": 999, "REV_AT_EPOCH": 50095, "BSTAR": 0.00035378493, "MEAN_MOTION_DOT": 0.00022034, "MEAN_MOTION_DDOT": 0}, "tle": {"line1": "1 41886U 16078C   25352.41954303  .00022034  00000+0  35378-3 0  9994", "line2": "2 41886  34.9446 342.8876 0011469 258.9648 100.9785 15.51990964500958"}}, "geometry": {"type": "Point", "coordinates": [-105.24181672586253, -34.79781748858564]}}, {"type": "Feature", "properties": {"norad_id": 41887, "name": "CYGFM01", "group": "weather", "lat": -7.70218183153869, "lon": -2.52181293161639, "alt_km": 424.0717455714657, "timestamp": "2025-12-18T23:35:48.688935+00:00", "meta": {"OBJECT_NAME": "CYGFM01", "OBJECT_ID": "2016-078D", "EPOCH": "2025-12-18T11:16:35.201568", "MEAN_MOTION": 15.48428665, "ECCENTRICITY": 0.00103113, "INCLINATION": 34.9437, "RA_OF_ASC_NODE": 12.0044, "ARG_OF_PERICENTER": 226.5679, "MEAN_ANOMALY": 133.4185, "EPHEMERIS_TYPE": 0, "CLASSIFICATION_TYPE": "U", "NORAD_CAT_ID": 41887, "ELEMENT_SET_NO": 999, "REV_AT_EPOCH": 50059, "BSTAR": 0.00031117974, "MEAN_MOTION_DOT": 0.00017044, "MEAN_MOTION_DDOT": 0}, "tle": {"line1": "1 41887U 16078D   25352.46985187  .00017044  00000+0  31118-3 0  9997", "line2": "2 41887  34.9437  12.0044 0010311 226.5679 133.4185 15.48428665500597"}}, "geometry": {"type": "Point", "coordinates": [-2.52181293161639, -7.70218183153869]}}, {"type": "Feature", "properties": {"norad_id": 41888, "name": "CYGFM08", "group": "weather", "lat": 30.424774197678953, "lon": 48.80858865853474, "alt_km": 419.9296348014259, "timestamp": "2025-12-18T23:35:48.688946+00:00", "meta": {"OBJECT_NAME": "CYGFM08", "OBJECT_ID": "2016-078E", "EPOCH": "2025-12-18T09:24:52.116768", "MEAN_MOTION": 15.49646932, "ECCENTRICITY": 0.00120006, "INCLINATION": 34.9468, "RA_OF_ASC_NODE": 355.4372, "ARG_OF_PERICENTER": 248.6935, "MEAN_ANOMALY": 111.2506, "EPHEMERIS_TYPE": 0, "CLASSIFICATION_TYPE": "U", "NORAD_CAT_ID": 41888, "ELEMENT_SET_NO": 999, "REV_AT_EPOCH": 50081, "BSTAR": 0.00034719619, "MEAN_MOTION_DOT": 0.00019881, "MEAN_MOTION_DDOT": 0}, "tle": {"line1": "1 41888U 16078E   25352.39226987  .00019881  00000+0  34720-3 0  9999", "line2": "2 41888  34.9468 355.4372 0012000 248.6935 111.2506 15.49646932500813"}}, "geometry": {"type": "Point", "coordinates": [48.80858865853474, 30.424774197678953]}}, {"type": "Feature", "properties": {"norad_id": 41890, "name": "CYGFM07", "group": "weather", "lat": 30.710258502608266, "lon": 38.7825869344079, "alt_km": 416.35980992313125, "timestamp": "2025-12-18T23:35:48.688958+00:00", "meta": {"OBJECT_NAME": "CYGFM07", "OBJECT_ID": "2016-078G", "EPOCH": "2025-12-18T09:24:57.659328", "MEAN_MOTION": 15.50233776, "ECCENTRICITY": 0.00101264, "INCLINATION": 34.9484, "RA_OF_ASC_NODE": 344.3859, "ARG_OF_PERICENTER": 263.9278, "MEAN_ANOMALY": 96.029, "EPHEMERIS_TYPE": 0, "CLASSIFICATION_TYPE": "U", "NORAD_CAT_ID": 41890, "ELEMENT_SET_NO": 999, "REV_AT_EPOCH": 50083, "BSTAR": 0.00033098581, "MEAN_MOTION_DOT": 0.00019332, "MEAN_MOTION_DDOT": 0}, "tle": {"line1": "1 41890U 16078G   25352.39233402  .00019332  00000+0  33099-3 0  9991", "line2": "2 41890  34.9484 344.3859 0010126 263.9278  96.0290 15.50233776500830"}}, "geometry": {"type": "Point", "coordinates": [38.7825869344079, 30.710258502608266]}}, {"type": "Feature", "properties": {"norad_id": 41891, "name": "CYGFM03", "group": "weather", "lat": -33.66788770137946, "lon": -125.0195219138943, "alt_km": 411.7392796584327, "timestamp": "2025-12-18T23:35:48.688984+00:00", "meta": {"OBJECT_NAME": "CYGFM03", "OBJECT_ID": "2016-078H", "EPOCH": "2025-12-18T10:08:04.475328", "MEAN_MOTION": 15.50133143, "ECCENTRICITY": 0.00096864, "INCLINATION": 34.9439, "RA_OF_ASC_NODE": 346.1113, "ARG_OF_PERICENTER": 252.1758, "MEAN_ANOMALY": 107.7907, "EPHEMERIS_TYPE": 0, "CLASSIFICATION_TYPE": "U", "NORAD_CAT_ID": 41891, "ELEMENT_SET_NO": 999, "REV_AT_EPOCH": 50081, "BSTAR": 0.00034490402, "MEAN_MOTION_DOT": 0.00020074, "MEAN_MOTION_DDOT": 0}, "tle": {"line1": "1 41891U 16078H   25352.42227402  .00020074  00000+0  34490-3 0  9990", "line2": "2 41891  34.9439 346.1113 0009686 252.1758 107.7907 15.50133143500816"}}, "geometry": {"type": "Point", "coordinates": [-125.0195219138943, -33.66788770137946]}}]}